STARLINK-36810          
1 67898U 26035V   26077.58334491 -.01170145  00000+0 -84812-2 0  9998
2 67898  97.2867  10.4578 0001543  85.8080  14.7423 15.76056801  5180
STARLINK-36878          
1 67899U 26035W   26077.56267680  .00335938  00000+0  16784-2 0  9995
2 67899  97.2903  10.4399 0001418 105.2163 254.9263 15.80939435  5248
STARLINK-36361          
1 67900U 26035X   26077.56192430  .00290750  00000+0  14613-2 0  9999
2 67900  97.2900  10.4413 0001134 111.0368 249.1022 15.80925958  5246
STARLINK-36336          
1 67901U 26035Y   26077.58334491 -.01924325  00000+0 -13056-1 0  9991
2 67901  97.2875  10.4725 0001927  77.5556  53.9749 15.78060523  5230
STARLINK-36876          
1 67902U 26035Z   26077.56117193  .00194641  00000+0  99111-3 0  9993
2 67902  97.2893  10.4436 0001154 127.9423 232.1950 15.80888610  5249
STARLINK-36257          
1 67903U 26035AA  26077.32237371  .00205400  00000+0  13438-2 0  9992
2 67903  97.2863  10.1586 0002839 104.0581 256.1000 15.75210934  5202
STARLINK-36814          
1 67904U 26036A   26077.58334491  .00055570  00000+0  94760-3 0  9992
2 67904  43.0002 197.1822 0001355 275.3010 235.4879 15.50541393  5075
STARLINK-36729          
1 67905U 26036B   26077.58334491  .00040424  00000+0  69217-3 0  9994
2 67905  43.0004 196.5341 0001240 281.9527 130.9542 15.50544278  5077
STARLINK-36763          
1 67906U 26036C   26077.58334491  .00038900  00000+0  66627-3 0  9993
2 67906  43.0002 196.4603 0002065 285.3611 157.3306 15.50549938  5073
STARLINK-36742          
1 67907U 26036D   26077.58334491  .00046177  00000+0  78915-3 0  9992
2 67907  43.0004 196.5115 0001094 294.3641 127.7449 15.50548728  5074
STARLINK-36827          
1 67908U 26036E   26077.58334491 -.01992431  00000+0 -35498-1 0  9996
2 67908  43.0001 196.2015 0001455 273.6462 273.7627 15.52461351  5078
STARLINK-36822          
1 67909U 26036F   26077.58334491  .00039421  00000+0  67521-3 0  9999
2 67909  43.0001 196.4533 0001770 273.9833 171.5400 15.50544270  5075
STARLINK-36847          
1 67910U 26036G   26077.58334491  .00033460  00000+0  57401-3 0  9994
2 67910  43.0003 196.5000 0001732 313.8643 112.5048 15.50564867  5077
STARLINK-36736          
1 67911U 26036H   26077.58334491 -.01887523  00000+0 -30068-1 0  9993
2 67911  42.9999 195.9650 0001299 275.5359   7.5913 15.55859551  5076
STARLINK-36676          
1 67912U 26036J   26077.58334491 -.01865152  00000+0 -32098-1 0  9993
2 67912  43.0003 196.0781 0001172 284.9511 312.9728 15.53738429  5071
STARLINK-36690          
1 67913U 26036K   26077.58334491 -.01948793  00000+0 -32968-1 0  9993
2 67913  43.0000 196.0626 0000813 283.8272 319.3719 15.53811443  5079
